OBJECT_NAME,OBJECT_ID,EPOCH,MEAN_MOTION,ECCENTRICITY,INCLINATION,RA_OF_ASC_NODE,ARG_OF_PERICENTER,MEAN_ANOMALY,EPHEMERIS_TYPE,CLASSIFICATION_TYPE,NORAD_CAT_ID,ELEMENT_SET_NO,REV_AT_EPOCH,BSTAR,MEAN_MOTION_DOT,MEAN_MOTION_DDOT
IRIDIUM 102,2017-003D,2021-10-02T00:44:28.929696,14.34216041,.0001917,86.3922,86.8384,82.5368,277.6046,0,U,41920,999,24687,-.1106E-5,.17E-6,0
IRIDIUM 105,2017-003E,2021-10-02T11:45:42.192288,14.34216951,.0002153,86.3972,55.0318,107.1690,252.9741,0,U,41921,999,24879,.35349E-4,.119E-5,0
IRIDIUM 104,2017-003F,2021-10-02T04:23:40.975296,14.34215478,.0001929,86.3923,86.7911,98.8561,261.2853,0,U,41922,999,24688,-.58797E-4,-.145E-5,0
IRIDIUM 114,2017-003G,2021-10-02T11:14:40.952256,14.34218702,.0002384,86.3920,86.6600,89.8624,270.2845,0,U,41923,999,24692,.12199E-4,.54E-6,0
IRIDIUM 108,2017-003H,2021-10-02T03:33:06.304032,14.34216768,.0002281,86.3965,55.1647,100.5491,259.5962,0,U,41924,999,24871,.35892E-4,.12E-5,0
IRIDIUM 112,2017-003J,2021-10-02T10:56:24.469728,14.34216230,.0002344,86.3917,86.5881,83.6453,276.5009,0,U,41925,999,24695,.84042E-5,.43E-6,0
IRIDIUM 111,2017-003K,2021-10-02T00:35:21.107040,14.34218692,.0001776,86.3918,86.8019,92.1579,267.9820,0,U,41926,999,24684,.12335E-4,.54E-6,0
SBIRS GEO-4 (USA 273),2017-004A,2021-10-02T05:12:40.694688,1.00272901,.0002414,2.8487,314.6536,237.9585,97.3305,0,U,41937,999,1736,0,.125E-5,0
HISPASAT 36W-1,2017-006A,2021-10-02T05:27:50.315616,1.00271008,.0000944,0.0099,31.4718,159.2964,226.3761,0,U,41942,999,1699,0,-.247E-5,0
TELKOM 3S,2017-007A,2021-10-01T22:54:54.543744,1.00273230,.000235,0.0101,220.8598,330.1254,281.6626,0,U,41944,999,1690,0,-.366E-5,0
INTELSAT 32E (IS-32E),2017-007B,2021-10-02T11:10:42.589344,1.00269665,.0000229,0.0248,182.3082,266.6926,46.8990,0,U,41945,999,1701,0,-.272E-5,0
CARTOSAT-2D,2017-008A,2021-10-02T04:12:44.437248,15.19259484,.0008113,97.4307,333.8602,141.6678,218.5158,0,U,41948,999,25658,.61513E-4,.123E-4,0
INS-1A,2017-008B,2021-10-02T01:16:56.104896,15.26797952,.0010435,97.2981,335.7788,76.9580,283.2823,0,U,41949,999,25732,.23161E-3,.6037E-4,0
FLOCK 3P-8,2017-008D,2021-10-02T03:58:35.837184,15.28114339,.0009261,97.3126,340.8334,71.3264,288.8980,0,U,41951,999,25757,.13274E-3,.3569E-4,0
INS-1B,2017-008G,2021-10-02T01:21:32.276448,15.26786878,.0010335,97.2976,335.8000,78.1837,282.0560,0,U,41954,999,25727,.22049E-3,.5742E-4,0
FLOCK 3P-24,2017-008J,2021-10-02T00:06:12.542976,15.30032944,.0008738,97.3148,343.7848,57.3608,302.8475,0,U,41956,999,25776,.17214E-3,.4933E-4,0
FLOCK 3P-4,2017-008T,2021-10-02T10:52:15.491712,15.28587072,.0009237,97.3119,341.1776,68.6345,291.5879,0,U,41965,999,25754,.15463E-3,.423E-4,0
FLOCK 3P-2,2017-008U,2021-10-02T04:41:00.923712,15.28550235,.0008883,97.3135,341.0827,67.7234,292.4947,0,U,41966,999,25742,.23416E-3,.6438E-4,0
FLOCK 3P-3,2017-008W,2021-10-02T01:53:19.063104,15.28712647,.000904,97.3134,341.3011,67.1265,293.0928,0,U,41968,999,25751,.18406E-3,.5069E-4,0
FLOCK 3P-12,2017-008AA,2021-10-02T10:31:03.077184,15.28635601,.0008868,97.3136,341.3890,71.4171,288.8031,0,U,41972,999,25754,.14719E-3,.4029E-4,0
FLOCK 3P-11,2017-008AD,2021-10-02T10:48:24.667200,15.28583702,.000902,97.3126,341.2999,69.0061,291.2143,0,U,41975,999,25731,.20556E-3,.5648E-4,0
FLOCK 3P-58,2017-008AF,2021-10-02T04:23:25.291968,15.28591632,.0008939,97.3136,341.1283,71.1799,289.0410,0,U,41977,999,25758,.15683E-3,.4292E-4,0
FLOCK 3P-57,2017-008AG,2021-10-02T04:03:02.694816,15.28583796,.0008936,97.3131,341.0991,69.7733,290.4467,0,U,41978,999,25742,.1557E-3,.4259E-4,0
FLOCK 3P-70,2017-008AJ,2021-10-02T04:07:43.034304,15.28551983,.0009006,97.3172,341.7632,72.8154,287.4071,0,U,41980,999,25742,.199E-3,.546E-4,0
FLOCK 3P-34,2017-008AS,2021-10-02T04:01:01.201728,15.28554671,.0008446,97.3147,341.2633,70.3087,289.9064,0,U,41988,999,25690,.14423E-3,.3936E-4,0
FLOCK 3P-33,2017-008AU,2021-10-02T10:43:30.068256,15.27565748,.0008612,97.3140,340.9918,73.3747,286.8437,0,U,41990,999,25691,.12114E-3,.3195E-4,0
LEMUR-2-JOBANPUTRA,2017-008AV,2021-10-02T10:46:41.034720,15.26885579,.0008697,97.3007,337.5533,79.7250,280.4969,0,U,41991,999,25676,.15198E-3,.3945E-4,0
LEMUR-2-SPIRE-MINIONS,2017-008AW,2021-10-02T04:14:00.695616,15.28976798,.0008121,97.3063,340.1761,74.5486,285.6650,0,U,41992,999,25688,.21081E-3,.5863E-4,0
LEMUR-2-SATCHMO,2017-008AX,2021-10-02T02:44:01.520736,15.27182966,.000862,97.3008,337.7081,79.2761,280.9448,0,U,41993,999,25674,.20348E-3,.5355E-4,0
LEMUR-2-SMITA-SHARAD,2017-008AY,2021-10-02T03:47:46.924800,15.28947444,.0008182,97.3056,339.9674,73.0528,287.1609,0,U,41994,999,25687,.20688E-3,.5748E-4,0
LEMUR-2-RDEATON,2017-008AZ,2021-10-02T01:47:29.221728,15.27139349,.0009791,97.3023,337.8491,90.1524,270.0837,0,U,41995,999,25742,.19862E-3,.522E-4,0
