IRIDIUM 102             
1 41920U 17003D   21275.03089039  .00000017  00000-0 -11060-5 0  9998
2 41920  86.3922  86.8384 0001917  82.5368 277.6046 14.34216041246870
IRIDIUM 105             
1 41921U 17003E   21275.49007167  .00000119  00000-0  35349-4 0  9998
2 41921  86.3972  55.0318 0002153 107.1690 252.9741 14.34216951248797
IRIDIUM 104             
1 41922U 17003F   21275.18311314 -.00000145  00000-0 -58797-4 0  9990
2 41922  86.3923  86.7911 0001929  98.8561 261.2853 14.34215478246885
IRIDIUM 114             
1 41923U 17003G   21275.46852954  .00000054  00000-0  12199-4 0  9995
2 41923  86.3920  86.6600 0002384  89.8624 270.2845 14.34218702246922
IRIDIUM 108             
1 41924U 17003H   21275.14798963  .00000120  00000-0  35892-4 0  9999
2 41924  86.3965  55.1647 0002281 100.5491 259.5962 14.34216768248712
IRIDIUM 112             
1 41925U 17003J   21275.45583877  .00000043  00000-0  84042-5 0  9996
2 41925  86.3917  86.5881 0002344  83.6453 276.5009 14.34216230246956
IRIDIUM 111             
1 41926U 17003K   21275.02454985  .00000054  00000-0  12335-4 0  9994
2 41926  86.3918  86.8019 0001776  92.1579 267.9820 14.34218692246843
SBIRS GEO-4 (USA 273)   
1 41937U 17004A   21275.21713767  .00000125  00000-0  00000-0 0  9995
2 41937   2.8487 314.6536 0002414 237.9585  97.3305  1.00272901 17369
HISPASAT 36W-1          
1 41942U 17006A   21275.22766569 -.00000247  00000-0  00000-0 0  9998
2 41942   0.0099  31.4718 0000944 159.2964 226.3761  1.00271008 16998
TELKOM 3S               
1 41944U 17007A   21274.95479796 -.00000366  00000-0  00000-0 0  9995
2 41944   0.0101 220.8598 0002350 330.1254 281.6626  1.00273230 16903
INTELSAT 32E (IS-32E)   
1 41945U 17007B   21275.46577071 -.00000272  00000-0  00000+0 0  9993
2 41945   0.0248 182.3082 0000229 266.6926  46.8990  1.00269665 17013
CARTOSAT-2D             
1 41948U 17008A   21275.17551432  .00001230  00000-0  61513-4 0  9993
2 41948  97.4307 333.8602 0008113 141.6678 218.5158 15.19259484256583
INS-1A                  
1 41949U 17008B   21275.05342714  .00006037  00000-0  23161-3 0  9998
2 41949  97.2981 335.7788 0010435  76.9580 283.2823 15.26797952257324
FLOCK 3P-8              
1 41951U 17008D   21275.16569256  .00003569  00000-0  13274-3 0  9996
2 41951  97.3126 340.8334 0009261  71.3264 288.8980 15.28114339257572
INS-1B                  
1 41954U 17008G   21275.05662357  .00005742  00000-0  22049-3 0  9998
2 41954  97.2976 335.8000 0010335  78.1837 282.0560 15.26786878257274
FLOCK 3P-24             
1 41956U 17008J   21275.00431184  .00004933  00000-0  17214-3 0  9996
2 41956  97.3148 343.7848 0008738  57.3608 302.8475 15.30032944257768
FLOCK 3P-4              
1 41965U 17008T   21275.45295708  .00004230  00000-0  15463-3 0  9999
2 41965  97.3119 341.1776 0009237  68.6345 291.5879 15.28587072257548
FLOCK 3P-2              
1 41966U 17008U   21275.19514958  .00006438  00000-0  23416-3 0  9991
2 41966  97.3135 341.0827 0008883  67.7234 292.4947 15.28550235257420
FLOCK 3P-3              
1 41968U 17008W   21275.07869286  .00005069  00000-0  18406-3 0  9999
2 41968  97.3134 341.3011 0009040  67.1265 293.0928 15.28712647257516
FLOCK 3P-12             
1 41972U 17008AA  21275.43823006  .00004029  00000-0  14719-3 0  9992
2 41972  97.3136 341.3890 0008868  71.4171 288.8031 15.28635601257543
FLOCK 3P-11             
1 41975U 17008AD  21275.45028550  .00005648  00000-0  20556-3 0  9992
2 41975  97.3126 341.2999 0009020  69.0061 291.2143 15.28583702257317
FLOCK 3P-58             
1 41977U 17008AF  21275.18293162  .00004292  00000-0  15683-3 0  9996
2 41977  97.3136 341.1283 0008939  71.1799 289.0410 15.28591632257587
FLOCK 3P-57             
1 41978U 17008AG  21275.16878119  .00004259  00000-0  15570-3 0  9994
2 41978  97.3131 341.0991 0008936  69.7733 290.4467 15.28583796257429
FLOCK 3P-70             
1 41980U 17008AJ  21275.17202586  .00005460  00000-0  19900-3 0  9993
2 41980  97.3172 341.7632 0009006  72.8154 287.4071 15.28551983257427
FLOCK 3P-34             
1 41988U 17008AS  21275.16737502  .00003936  00000-0  14423-3 0  9992
2 41988  97.3147 341.2633 0008446  70.3087 289.9064 15.28554671256906
FLOCK 3P-33             
1 41990U 17008AU  21275.44687579  .00003195  00000-0  12114-3 0  9996
2 41990  97.3140 340.9918 0008612  73.3747 286.8437 15.27565748256912
LEMUR-2-JOBANPUTRA      
1 41991U 17008AV  21275.44908605  .00003945  00000-0  15198-3 0  9991
2 41991  97.3007 337.5533 0008697  79.7250 280.4969 15.26885579256761
LEMUR-2-SPIRE-MINIONS   
1 41992U 17008AW  21275.17639694  .00005863  00000-0  21081-3 0  9990
2 41992  97.3063 340.1761 0008121  74.5486 285.6650 15.28976798256886
LEMUR-2-SATCHMO         
1 41993U 17008AX  21275.11390649  .00005355  00000-0  20348-3 0  9990
2 41993  97.3008 337.7081 0008620  79.2761 280.9448 15.27182966256748
LEMUR-2-SMITA-SHARAD    
1 41994U 17008AY  21275.15818200  .00005748  00000-0  20688-3 0  9996
2 41994  97.3056 339.9674 0008182  73.0528 287.1609 15.28947444256873
LEMUR-2-RDEATON         
1 41995U 17008AZ  21275.07464377  .00005220  00000-0  19862-3 0  9997
2 41995  97.3023 337.8491 0009791  90.1524 270.0837 15.27139349257427
